[
    {
        "Altitude(m)": 568063.7596669178,
        "Argument of Periapsis(deg)": 0.033114955553567506,
        "Eccentricity": 0.0,
        "Inclination(deg)": 53.0,
        "Latitude(deg)": -43.72068836724437,
        "Longitude(deg)": -123.20568925276032,
        "Mean Anomaly(deg)": 239.54896433788798,
        "RAAN(deg)": 114.95071684264009,
        "Satellite Name": "Starlink Shell 1 517",
        "Satellite Number": 517,
        "Semi-Major Axis(m)": 6931778.249405717,
        "Time(s)": 950
    },
    {
        "Altitude(m)": 568206.4237261938,
        "Argument of Periapsis(deg)": 0.03346353403307874,
        "Eccentricity": 0.0,
        "Inclination(deg)": 53.0,
        "Latitude(deg)": -44.06719383155692,
        "Longitude(deg)": -122.52623212328353,
        "Mean Anomaly(deg)": 240.17579554144473,
        "RAAN(deg)": 114.95019807256261,
        "Satellite Name": "Starlink Shell 1 517",
        "Satellite Number": 517,
        "Semi-Major Axis(m)": 6931778.249405717,
        "Time(s)": 960
    },
    {
        "Altitude(m)": 568347.0502037822,
        "Argument of Periapsis(deg)": 0.03381211251258998,
        "Eccentricity": 0.0,
        "Inclination(deg)": 53.0,
        "Latitude(deg)": -44.40907324342165,
        "Longitude(deg)": -121.83839508797992,
        "Mean Anomaly(deg)": 240.80262674500133,
        "RAAN(deg)": 114.94967930248514,
        "Satellite Name": "Starlink Shell 1 517",
        "Satellite Number": 517,
        "Semi-Major Axis(m)": 6931778.249405717,
        "Time(s)": 970
    },
    {
        "Altitude(m)": 568485.5837557118,
        "Argument of Periapsis(deg)": 0.034160690992101214,
        "Eccentricity": 0.0,
        "Inclination(deg)": 53.0,
        "Latitude(deg)": -44.74621865234774,
        "Longitude(deg)": -121.1420951849649,
        "Mean Anomaly(deg)": 241.4294579485581,
        "RAAN(deg)": 114.94916053240766,
        "Satellite Name": "Starlink Shell 1 517",
        "Satellite Number": 517,
        "Semi-Major Axis(m)": 6931778.249405717,
        "Time(s)": 980
    },
    {
        "Altitude(m)": 568621.9698220621,
        "Argument of Periapsis(deg)": 0.034509269471612446,
        "Eccentricity": 0.0,
        "Inclination(deg)": 53.0,
        "Latitude(deg)": -45.078520460064446,
        "Longitude(deg)": -120.43725417000744,
        "Mean Anomaly(deg)": 242.05628915211477,
        "RAAN(deg)": 114.94864176233021,
        "Satellite Name": "Starlink Shell 1 517",
        "Satellite Number": 517,
        "Semi-Major Axis(m)": 6931778.249405717,
        "Time(s)": 990
    }
]